2025-292D               
1 66996U 25292D   25364.89539191  .00008513  00000+0  60731-3 0  9997
2 66996  97.6498  77.2696 0014203 210.6592 149.3805 15.04713864  3128
2025-292E               
1 66997U 25292E   25364.89406454  .00009299  00000+0  66040-3 0  9994
2 66997  97.6520  77.2768 0014570 212.0747 147.9594 15.04849512  3118
2025-292F               
1 66998U 25292F   25364.89170310  .00011531  00000+0  81288-3 0  9997
2 66998  97.6543  77.2849 0015679 212.7245 147.3011 15.05054445  3128
2025-292G               
1 66999U 25292G   25364.89082484  .00011648  00000+0  81980-3 0  9990
2 66999  97.6553  77.2884 0015164 214.5599 145.4643 15.05119485  3126
2025-292H               
1 67000U 25292H   25364.89055464  .00014126  00000+0  99153-3 0  9997
2 67000  97.6567  77.2920 0015082 214.5558 145.4690 15.05171531  2996
2025-292J               
1 67001U 25292J   25364.89887167  .00010922  00000+0  78109-3 0  9999
2 67001  97.6530  77.2750 0015455 204.7676 155.2810 15.04532894  3125
ZK-1A R/B               
1 67002U 25292K   25364.77694198  .00197825  12858-4  87447-3 0  9999
2 67002  97.7197  79.0722 0199352 299.1837  58.9604 15.60574618  3202
STARLINK-35660          
1 67003U 25293A   25364.91670139 -.01656882  00000+0 -25113-1 0  9993
2 67003  70.0000 271.7229 0003143 266.0792 322.5132 15.57345509  3081
STARLINK-35913          
1 67004U 25293B   25364.91670139 -.01653969  00000+0 -25072-1 0  9991
2 67004  69.9999 271.7204 0003326 266.3197 324.2368 15.57334891  3086
STARLINK-36148          
1 67005U 25293C   25364.91670139 -.01656528  00000+0 -25129-1 0  9999
2 67005  69.9997 271.7179 0003318 265.0805 327.4604 15.57321162  3084
STARLINK-36156          
1 67006U 25293D   25364.91670139 -.01648686  00000+0 -25048-1 0  9996
2 67006  70.0001 271.7129 0003175 265.4014 331.2135 15.57267679  3080
STARLINK-36123          
1 67007U 25293E   25364.91670139 -.01663079  00000+0 -25267-1 0  9993
2 67007  69.9997 271.7154 0003167 266.4268 328.1835 15.57292984  3082
