CCSDS_OMM_VERS = 2.0
CREATION_DATE  = 
ORIGINATOR     = 

OBJECT_NAME    = 2025-292D
OBJECT_ID      = 2025-292D
CENTER_NAME    = EARTH
REF_FRAME      = TEME
TIME_SYSTEM    = UTC
MEAN_ELEMENT_THEORY = SGP/SGP4

EPOCH          = 2025-12-30T21:29:21.861024
MEAN_MOTION    = 15.04713864
ECCENTRICITY   = .00142032
INCLINATION    = 97.6498
RA_OF_ASC_NODE = 77.2696
ARG_OF_PERICENTER = 210.6592
MEAN_ANOMALY   = 149.3805

EPHEMERIS_TYPE = 0
CLASSIFICATION_TYPE = U
NORAD_CAT_ID   = 66996
ELEMENT_SET_NO = 999
REV_AT_EPOCH   = 312
BSTAR          = .60730796E-3
MEAN_MOTION_DOT = .8513E-4
MEAN_MOTION_DDOT = 0

CCSDS_OMM_VERS = 2.0
CREATION_DATE  = 
ORIGINATOR     = 

OBJECT_NAME    = 2025-292E
OBJECT_ID      = 2025-292E
CENTER_NAME    = EARTH
REF_FRAME      = TEME
TIME_SYSTEM    = UTC
MEAN_ELEMENT_THEORY = SGP/SGP4

EPOCH          = 2025-12-30T21:27:27.176256
MEAN_MOTION    = 15.04849512
ECCENTRICITY   = .00145709
INCLINATION    = 97.6520
RA_OF_ASC_NODE = 77.2768
ARG_OF_PERICENTER = 212.0747
MEAN_ANOMALY   = 147.9594

EPHEMERIS_TYPE = 0
CLASSIFICATION_TYPE = U
NORAD_CAT_ID   = 66997
ELEMENT_SET_NO = 999
REV_AT_EPOCH   = 311
BSTAR          = .66040435E-3
MEAN_MOTION_DOT = .9299E-4
MEAN_MOTION_DDOT = 0

CCSDS_OMM_VERS = 2.0
CREATION_DATE  = 
ORIGINATOR     = 

OBJECT_NAME    = 2025-292F
OBJECT_ID      = 2025-292F
CENTER_NAME    = EARTH
REF_FRAME      = TEME
TIME_SYSTEM    = UTC
MEAN_ELEMENT_THEORY = SGP/SGP4

EPOCH          = 2025-12-30T21:24:03.147840
MEAN_MOTION    = 15.05054445
ECCENTRICITY   = .00156791
INCLINATION    = 97.6543
RA_OF_ASC_NODE = 77.2849
ARG_OF_PERICENTER = 212.7245
MEAN_ANOMALY   = 147.3011

EPHEMERIS_TYPE = 0
CLASSIFICATION_TYPE = U
NORAD_CAT_ID   = 66998
ELEMENT_SET_NO = 999
REV_AT_EPOCH   = 312
BSTAR          = .81288215E-3
MEAN_MOTION_DOT = .11531E-3
MEAN_MOTION_DDOT = 0

CCSDS_OMM_VERS = 2.0
CREATION_DATE  = 
ORIGINATOR     = 

OBJECT_NAME    = 2025-292G
OBJECT_ID      = 2025-292G
CENTER_NAME    = EARTH
REF_FRAME      = TEME
TIME_SYSTEM    = UTC
MEAN_ELEMENT_THEORY = SGP/SGP4

EPOCH          = 2025-12-30T21:22:47.266176
MEAN_MOTION    = 15.05119485
ECCENTRICITY   = .00151643
INCLINATION    = 97.6553
RA_OF_ASC_NODE = 77.2884
ARG_OF_PERICENTER = 214.5599
MEAN_ANOMALY   = 145.4643

EPHEMERIS_TYPE = 0
CLASSIFICATION_TYPE = U
NORAD_CAT_ID   = 66999
ELEMENT_SET_NO = 999
REV_AT_EPOCH   = 312
BSTAR          = .81980411E-3
MEAN_MOTION_DOT = .11648E-3
MEAN_MOTION_DDOT = 0

CCSDS_OMM_VERS = 2.0
CREATION_DATE  = 
ORIGINATOR     = 

OBJECT_NAME    = 2025-292H
OBJECT_ID      = 2025-292H
CENTER_NAME    = EARTH
REF_FRAME      = TEME
TIME_SYSTEM    = UTC
MEAN_ELEMENT_THEORY = SGP/SGP4

EPOCH          = 2025-12-30T21:22:23.920896
MEAN_MOTION    = 15.05171531
ECCENTRICITY   = .00150828
INCLINATION    = 97.6567
RA_OF_ASC_NODE = 77.2920
ARG_OF_PERICENTER = 214.5558
MEAN_ANOMALY   = 145.4690

EPHEMERIS_TYPE = 0
CLASSIFICATION_TYPE = U
NORAD_CAT_ID   = 67000
ELEMENT_SET_NO = 999
REV_AT_EPOCH   = 299
BSTAR          = .99152982E-3
MEAN_MOTION_DOT = .14126E-3
MEAN_MOTION_DDOT = 0

CCSDS_OMM_VERS = 2.0
CREATION_DATE  = 
ORIGINATOR     = 

OBJECT_NAME    = 2025-292J
OBJECT_ID      = 2025-292J
CENTER_NAME    = EARTH
REF_FRAME      = TEME
TIME_SYSTEM    = UTC
MEAN_ELEMENT_THEORY = SGP/SGP4

EPOCH          = 2025-12-30T21:34:22.512288
MEAN_MOTION    = 15.04532894
ECCENTRICITY   = .00154554
INCLINATION    = 97.6530
RA_OF_ASC_NODE = 77.2750
ARG_OF_PERICENTER = 204.7676
MEAN_ANOMALY   = 155.2810

EPHEMERIS_TYPE = 0
CLASSIFICATION_TYPE = U
NORAD_CAT_ID   = 67001
ELEMENT_SET_NO = 999
REV_AT_EPOCH   = 312
BSTAR          = .78109187E-3
MEAN_MOTION_DOT = .10922E-3
MEAN_MOTION_DDOT = 0

CCSDS_OMM_VERS = 2.0
CREATION_DATE  = 
ORIGINATOR     = 

OBJECT_NAME    = ZK-1A R/B
OBJECT_ID      = 2025-292K
CENTER_NAME    = EARTH
REF_FRAME      = TEME
TIME_SYSTEM    = UTC
MEAN_ELEMENT_THEORY = SGP/SGP4

EPOCH          = 2025-12-30T18:38:47.787072
MEAN_MOTION    = 15.60574618
ECCENTRICITY   = .01993528
INCLINATION    = 97.7197
RA_OF_ASC_NODE = 79.0722
ARG_OF_PERICENTER = 299.1837
MEAN_ANOMALY   = 58.9604

EPHEMERIS_TYPE = 0
CLASSIFICATION_TYPE = U
NORAD_CAT_ID   = 67002
ELEMENT_SET_NO = 999
REV_AT_EPOCH   = 320
BSTAR          = .87446553E-3
MEAN_MOTION_DOT = .197825E-2
MEAN_MOTION_DDOT = .12857998E-4

CCSDS_OMM_VERS = 2.0
CREATION_DATE  = 
ORIGINATOR     = 

OBJECT_NAME    = STARLINK-35660
OBJECT_ID      = 2025-293A
CENTER_NAME    = EARTH
REF_FRAME      = TEME
TIME_SYSTEM    = UTC
MEAN_ELEMENT_THEORY = SGP/SGP4

EPOCH          = 2025-12-30T22:00:03.000096
MEAN_MOTION    = 15.57345509
ECCENTRICITY   = .00031437
INCLINATION    = 70.0000
RA_OF_ASC_NODE = 271.7229
ARG_OF_PERICENTER = 266.0792
MEAN_ANOMALY   = 322.5132

EPHEMERIS_TYPE = 0
CLASSIFICATION_TYPE = U
NORAD_CAT_ID   = 67003
ELEMENT_SET_NO = 999
REV_AT_EPOCH   = 308
BSTAR          = -.25113462E-1
MEAN_MOTION_DOT = -.1656882E-1
MEAN_MOTION_DDOT = 0

CCSDS_OMM_VERS = 2.0
CREATION_DATE  = 
ORIGINATOR     = 

OBJECT_NAME    = STARLINK-35913
OBJECT_ID      = 2025-293B
CENTER_NAME    = EARTH
REF_FRAME      = TEME
TIME_SYSTEM    = UTC
MEAN_ELEMENT_THEORY = SGP/SGP4

EPOCH          = 2025-12-30T22:00:03.000096
MEAN_MOTION    = 15.57334891
ECCENTRICITY   = .00033266
INCLINATION    = 69.9999
RA_OF_ASC_NODE = 271.7204
ARG_OF_PERICENTER = 266.3197
MEAN_ANOMALY   = 324.2368

EPHEMERIS_TYPE = 0
CLASSIFICATION_TYPE = U
NORAD_CAT_ID   = 67004
ELEMENT_SET_NO = 999
REV_AT_EPOCH   = 308
BSTAR          = -.25072498E-1
MEAN_MOTION_DOT = -.1653969E-1
MEAN_MOTION_DDOT = 0

CCSDS_OMM_VERS = 2.0
CREATION_DATE  = 
ORIGINATOR     = 

OBJECT_NAME    = STARLINK-36148
OBJECT_ID      = 2025-293C
CENTER_NAME    = EARTH
REF_FRAME      = TEME
TIME_SYSTEM    = UTC
MEAN_ELEMENT_THEORY = SGP/SGP4

EPOCH          = 2025-12-30T22:00:03.000096
MEAN_MOTION    = 15.57321162
ECCENTRICITY   = .00033183
INCLINATION    = 69.9997
RA_OF_ASC_NODE = 271.7179
ARG_OF_PERICENTER = 265.0805
MEAN_ANOMALY   = 327.4604

EPHEMERIS_TYPE = 0
CLASSIFICATION_TYPE = U
NORAD_CAT_ID   = 67005
ELEMENT_SET_NO = 999
REV_AT_EPOCH   = 308
BSTAR          = -.25128639E-1
MEAN_MOTION_DOT = -.1656528E-1
MEAN_MOTION_DDOT = 0

CCSDS_OMM_VERS = 2.0
CREATION_DATE  = 
ORIGINATOR     = 

OBJECT_NAME    = STARLINK-36156
OBJECT_ID      = 2025-293D
CENTER_NAME    = EARTH
REF_FRAME      = TEME
TIME_SYSTEM    = UTC
MEAN_ELEMENT_THEORY = SGP/SGP4

EPOCH          = 2025-12-30T22:00:03.000096
MEAN_MOTION    = 15.57267679
ECCENTRICITY   = .00031752
INCLINATION    = 70.0001
RA_OF_ASC_NODE = 271.7129
ARG_OF_PERICENTER = 265.4014
MEAN_ANOMALY   = 331.2135

EPHEMERIS_TYPE = 0
CLASSIFICATION_TYPE = U
NORAD_CAT_ID   = 67006
ELEMENT_SET_NO = 999
REV_AT_EPOCH   = 308
BSTAR          = -.25048381E-1
MEAN_MOTION_DOT = -.1648686E-1
MEAN_MOTION_DDOT = 0

CCSDS_OMM_VERS = 2.0
CREATION_DATE  = 
ORIGINATOR     = 

OBJECT_NAME    = STARLINK-36123
OBJECT_ID      = 2025-293E
CENTER_NAME    = EARTH
REF_FRAME      = TEME
TIME_SYSTEM    = UTC
MEAN_ELEMENT_THEORY = SGP/SGP4

EPOCH          = 2025-12-30T22:00:03.000096
MEAN_MOTION    = 15.57292984
ECCENTRICITY   = .00031678
INCLINATION    = 69.9997
RA_OF_ASC_NODE = 271.7154
ARG_OF_PERICENTER = 266.4268
MEAN_ANOMALY   = 328.1835

EPHEMERIS_TYPE = 0
CLASSIFICATION_TYPE = U
NORAD_CAT_ID   = 67007
ELEMENT_SET_NO = 999
REV_AT_EPOCH   = 308
BSTAR          = -.25267417E-1
MEAN_MOTION_DOT = -.1663079E-1
MEAN_MOTION_DDOT = 0

